{
  "type": "FeatureCollection",
  "features": [
    {
      "type": "Feature",
      "properties": {
        "norad_id": 66645,
        "name": "SHENZHOU-22",
        "group": "last-30-days",
        "lat": 41.40930848637115,
        "lon": 152.77246458334622,
        "alt_km": 388.03124711651617,
        "timestamp": "2025-12-04T15:47:52.870907+00:00",
        "meta_object_name": "SHENZHOU-22",
        "meta_object_id": "2025-272A",
        "meta_epoch": "2025-12-04T07:44:04.873632",
        "meta_mean_motion": 15.58643052,
        "meta_eccentricity": 0.00099613,
        "meta_inclination": 41.4682,
        "meta_ra_of_asc_node": 67.7893,
        "meta_arg_of_pericenter": 326.0847,
        "meta_mean_anomaly": 33.9353,
        "meta_ephemeris_type": 0,
        "meta_classification_type": "U",
        "meta_norad_cat_id": 66645,
        "meta_element_set_no": 999,
        "meta_rev_at_epoch": 26274,
        "meta_bstar": 0.00047338698,
        "meta_mean_motion_dot": 0.00037313,
        "meta_mean_motion_ddot": 0,
        "tle_line1": "1 66645U 25272A   25338.32227863  .00037313  00000+0  47339-3 0  9994",
        "tle_line2": "2 66645  41.4682  67.7893 0009961 326.0847  33.9353 15.58643052262745"
      },
      "geometry": {
        "type": "Point",
        "coordinates": [
          152.77246458334622,
          41.40930848637115
        ]
      }
    },
    {
      "type": "Feature",
      "properties": {
        "norad_id": 66646,
        "name": "CZ-2F R/B",
        "group": "last-30-days",
        "lat": -31.504876649230283,
        "lon": -74.38554265306587,
        "alt_km": 196.51655214885523,
        "timestamp": "2025-12-04T15:47:52.870919+00:00",
        "meta_object_name": "CZ-2F R/B",
        "meta_object_id": "2025-272B",
        "meta_epoch": "2025-11-26T11:17:54.506400",
        "meta_mean_motion": 16.01945612,
        "meta_eccentricity": 0.01210796,
        "meta_inclination": 41.4431,
        "meta_ra_of_asc_node": 114.9009,
        "meta_arg_of_pericenter": 133.7676,
        "meta_mean_anomaly": 227.3272,
        "meta_ephemeris_type": 0,
        "meta_classification_type": "U",
        "meta_norad_cat_id": 66646,
        "meta_element_set_no": 999,
        "meta_rev_at_epoch": 21,
        "meta_bstar": 0.00029319366,
        "meta_mean_motion_dot": 0.00449059,
        "meta_mean_motion_ddot": 7.567612e-06,
        "tle_line1": "1 66646U 25272B   25330.47076975  .00449059  75676-5  29319-3 0  9998",
        "tle_line2": "2 66646  41.4431 114.9009 0121079 133.7676 227.3272 16.01945612   217"
      },
      "geometry": {
        "type": "Point",
        "coordinates": [
          -74.38554265306587,
          -31.504876649230283
        ]
      }
    },
    {
      "type": "Feature",
      "properties": {
        "norad_id": 66647,
        "name": "COSMOS 2597 (RODNIK-S 22)",
        "group": "last-30-days",
        "lat": -5.999379004372475,
        "lon": -69.32526813564823,
        "alt_km": 1497.3439593388312,
        "timestamp": "2025-12-04T15:47:52.870930+00:00",
        "meta_object_name": "COSMOS 2597 (RODNIK-S 22)",
        "meta_object_id": "2025-273A",
        "meta_epoch": "2025-12-04T08:05:49.007328",
        "meta_mean_motion": 12.41950973,
        "meta_eccentricity": 0.00081132,
        "meta_inclination": 82.4982,
        "meta_ra_of_asc_node": 291.6673,
        "meta_arg_of_pericenter": 308.8425,
        "meta_mean_anomaly": 51.193,
        "meta_ephemeris_type": 0,
        "meta_classification_type": "U",
        "meta_norad_cat_id": 66647,
        "meta_element_set_no": 999,
        "meta_rev_at_epoch": 109,
        "meta_bstar": -0.000155326,
        "meta_mean_motion_dot": -1.1e-07,
        "meta_mean_motion_ddot": 0,
        "tle_line1": "1 66647U 25273A   25338.33737277 -.00000011  00000+0 -15533-3 0  9991",
        "tle_line2": "2 66647  82.4982 291.6673 0008113 308.8425  51.1930 12.41950973  1091"
      },
      "geometry": {
        "type": "Point",
        "coordinates": [
          -69.32526813564823,
          -5.999379004372475
        ]
      }
    },
    {
      "type": "Feature",
      "properties": {
        "norad_id": 66648,
        "name": "COSMOS 2598 (RODNIK-S 23)",
        "group": "last-30-days",
        "lat": 3.7235847937115256,
        "lon": -68.03528449133768,
        "alt_km": 1496.7513666202867,
        "timestamp": "2025-12-04T15:47:52.870940+00:00",
        "meta_object_name": "COSMOS 2598 (RODNIK-S 23)",
        "meta_object_id": "2025-273B",
        "meta_epoch": "2025-12-04T06:06:47.884896",
        "meta_mean_motion": 12.42253119,
        "meta_eccentricity": 0.0008196,
        "meta_inclination": 82.5023,
        "meta_ra_of_asc_node": 291.7242,
        "meta_arg_of_pericenter": 297.6387,
        "meta_mean_anomaly": 62.386,
        "meta_ephemeris_type": 0,
        "meta_classification_type": "U",
        "meta_norad_cat_id": 66648,
        "meta_element_set_no": 999,
        "meta_rev_at_epoch": 108,
        "meta_bstar": -2.0719747e-05,
        "meta_mean_motion_dot": 7e-08,
        "meta_mean_motion_ddot": 0,
        "tle_line1": "1 66648U 25273B   25338.25472089  .00000007  00000+0 -20720-4 0  9999",
        "tle_line2": "2 66648  82.5023 291.7242 0008196 297.6387  62.3860 12.42253119  1089"
      },
      "geometry": {
        "type": "Point",
        "coordinates": [
          -68.03528449133768,
          3.7235847937115256
        ]
      }
    },
    {
      "type": "Feature",
      "properties": {
        "norad_id": 66649,
        "name": "COSMOS 2599 (RODNIK-S 24)",
        "group": "last-30-days",
        "lat": -14.988266813849245,
        "lon": -70.5403585592362,
        "alt_km": 1498.0932108748912,
        "timestamp": "2025-12-04T15:47:52.870952+00:00",
        "meta_object_name": "COSMOS 2599 (RODNIK-S 24)",
        "meta_object_id": "2025-273C",
        "meta_epoch": "2025-12-04T08:08:37.916736",
        "meta_mean_motion": 12.41671773,
        "meta_eccentricity": 0.00083342,
        "meta_inclination": 82.5023,
        "meta_ra_of_asc_node": 291.6778,
        "meta_arg_of_pericenter": 319.1764,
        "meta_mean_anomaly": 40.869,
        "meta_ephemeris_type": 0,
        "meta_classification_type": "U",
        "meta_norad_cat_id": 66649,
        "meta_element_set_no": 999,
        "meta_rev_at_epoch": 109,
        "meta_bstar": -6.6017427e-05,
        "meta_mean_motion_dot": 1e-08,
        "meta_mean_motion_ddot": 0,
        "tle_line1": "1 66649U 25273C   25338.33932774  .00000001  00000+0 -66017-4 0  9994",
        "tle_line2": "2 66649  82.5023 291.6778 0008334 319.1764  40.8690 12.41671773  1098"
      },
      "geometry": {
        "type": "Point",
        "coordinates": [
          -70.5403585592362,
          -14.988266813849245
        ]
      }
    },
    {
      "type": "Feature",
      "properties": {
        "norad_id": 66650,
        "name": "2025-274A",
        "group": "last-30-days",
        "lat": 57.26614762382669,
        "lon": 98.20745470961454,
        "alt_km": 594.2704617322297,
        "timestamp": "2025-12-04T15:47:52.870963+00:00",
        "meta_object_name": "2025-274A",
        "meta_object_id": "2025-274A",
        "meta_epoch": "2025-12-04T07:12:10.909728",
        "meta_mean_motion": 14.91616733,
        "meta_eccentricity": 0.00104098,
        "meta_inclination": 97.7386,
        "meta_ra_of_asc_node": 265.6433,
        "meta_arg_of_pericenter": 284.1818,
        "meta_mean_anomaly": 75.8244,
        "meta_ephemeris_type": 0,
        "meta_classification_type": "U",
        "meta_norad_cat_id": 66650,
        "meta_element_set_no": 999,
        "meta_rev_at_epoch": 114,
        "meta_bstar": 0.00037872843,
        "meta_mean_motion_dot": 3.75e-05,
        "meta_mean_motion_ddot": 0,
        "tle_line1": "1 66650U 25274A   25338.30012627  .00003750  00000+0  37873-3 0  9990",
        "tle_line2": "2 66650  97.7386 265.6433 0010409 284.1818  75.8244 14.91616733  1147"
      },
      "geometry": {
        "type": "Point",
        "coordinates": [
          98.20745470961454,
          57.26614762382669
        ]
      }
    },
    {
      "type": "Feature",
      "properties": {
        "norad_id": 66651,
        "name": "2025-274B",
        "group": "last-30-days",
        "lat": 55.55754691831185,
        "lon": 97.43075019507857,
        "alt_km": 594.3072599198349,
        "timestamp": "2025-12-04T15:47:52.870976+00:00",
        "meta_object_name": "2025-274B",
        "meta_object_id": "2025-274B",
        "meta_epoch": "2025-12-04T07:11:44.163744",
        "meta_mean_motion": 14.91697701,
        "meta_eccentricity": 0.0010694,
        "meta_inclination": 97.7381,
        "meta_ra_of_asc_node": 265.6431,
        "meta_arg_of_pericenter": 283.7233,
        "meta_mean_anomaly": 76.2795,
        "meta_ephemeris_type": 0,
        "meta_classification_type": "U",
        "meta_norad_cat_id": 66651,
        "meta_element_set_no": 999,
        "meta_rev_at_epoch": 114,
        "meta_bstar": 0.00084201279,
        "meta_mean_motion_dot": 8.43e-05,
        "meta_mean_motion_ddot": 0,
        "tle_line1": "1 66651U 25274B   25338.29981671  .00008430  00000+0  84201-3 0  9990",
        "tle_line2": "2 66651  97.7381 265.6431 0010694 283.7233  76.2795 14.91697701  1143"
      },
      "geometry": {
        "type": "Point",
        "coordinates": [
          97.43075019507857,
          55.55754691831185
        ]
      }
    }
  ]
}